JY1SAT (JO-97)          
1 43803U 18099AX  26068.68634132  .00017774  00000+0  60804-3 0  9996
2 43803  97.4249 131.3625 0004723 256.6795 103.3919 15.30302628398390
STARLINK-32545          
1 62135U 24222X   26068.22729164  .00037889  00000+0  13788-2 0  9997
2 62135  42.9973 139.1901 0000724 208.4705 151.6107 15.27592527 72720
